{
"type": "FeatureCollection",
"name": "newcastle_wards_flood_risk",
"crs": { "type": "name", "properties": { "name": "urn:ogc:def:crs:EPSG::27700" } },
"features": [
{ "type": "Feature", "properties": { "FID": 3016, "WD23CD": "E05011436", "WD23NM": "Arthur's Hill", "WD23NMW": " ", "BNG_E": 423485, "BNG_N": 564822, "LONG": -1.63462, "LAT": 54.97746, "GlobalID": "e2372c54-47c7-44ec-a2d6-3d3eab47327d", "Electoral wards and divisions Code": "E05011436", "Electoral wards and divisions": "Arthur's Hill", "total_population": 13276, "gp_count": 3.0, "gp_per_10k": 2.26, "flood_area_m2": 0.0, "ward_area_m2": 1286711.6297360442, "pct_flood_risk": 0.0, "flood_area_per_1k_pop": 0.0 }, "geometry": { "type": "Polygon", "coordinates": [ [ [ 424087.909397119132336, 565461.001293817185797 ], [ 424073.909292680385988, 565417.703761436278 ], [ 424190.60996583319502, 565326.600117326597683 ], [ 424162.815859408408869, 565192.808654771419242 ], [ 424040.813713750336319, 564999.704121171496809 ], [ 424003.216234191204421, 564635.608808396966197 ], [ 424210.909450933220796, 564543.105997327016667 ], [ 424346.615190716867801, 564391.809504855773412 ], [ 424277.513565115456004, 564264.605554510606453 ], [ 424253.710261642932892, 564136.302032720763236 ], [ 424067.816810267861001, 564166.302937240572646 ], [ 423994.715973125130404, 564213.19938417035155 ], [ 423840.310622239660006, 564210.899639875278808 ], [ 423818.411724614619743, 564185.206846731482074 ], [ 422895.615640246018302, 564438.504009725176729 ], [ 422972.814308200730011, 565101.004455389804207 ], [ 422883.413162878248841, 565141.103019780362956 ], [ 423063.312144773895852, 565396.199909229879268 ], [ 423188.109257141128182, 565489.903016208903864 ], [ 423531.713846230355557, 565099.704524151748046 ], [ 423663.214386523410212, 565243.303523866459727 ], [ 423787.014054754225072, 565234.306263704551384 ], [ 423870.214964116341434, 565501.799467650125735 ], [ 423944.709115704172291, 565435.598558592959307 ], [ 423986.016933492850512, 565501.999514106428251 ], [ 424087.909397119132336, 565461.001293817185797 ] ] ] } },
{ "type": "Feature", "properties": { "FID": 3017, "WD23CD": "E05011437", "WD23NM": "Benwell & Scotswood", "WD23NMW": " ", "BNG_E": 420679, "BNG_N": 564521, "LONG": -1.67848, "LAT": 54.97488, "GlobalID": "a64a3362-e034-47e4-8b97-418d336dfde9", "Electoral wards and divisions Code": "E05011437", "Electoral wards and divisions": "Benwell & Scotswood", "total_population": 13000, "gp_count": 0.0, "gp_per_10k": 0.0, "flood_area_m2": 10199.2, "ward_area_m2": 3750155.0133162402, "pct_flood_risk": 0.27, "flood_area_per_1k_pop": 784.55384615384617 }, "geometry": { "type": "Polygon", "coordinates": [ [ [ 421946.311985739332158, 564698.499742993852124 ], [ 421814.308747058385052, 564031.300872096559033 ], [ 421680.615119953290559, 563896.899272964219563 ], [ 421632.909419853240252, 563654.098848258843645 ], [ 421605.115338571835309, 563628.906146601540968 ], [ 421557.813419704209082, 563643.601821543532424 ], [ 421525.311473313544411, 563602.203706365311518 ], [ 421625.216996817151085, 563535.802709216135554 ], [ 421623.312502084474545, 563475.999774074996822 ], [ 421371.912254337628838, 563521.106793358805589 ], [ 421367.566031344234943, 563405.322619808139279 ], [ 420333.215943991439417, 563523.006670960923657 ], [ 420000.03571687953081, 563689.596479887259193 ], [ 419859.610785188677255, 563759.808869761647657 ], [ 419762.40971168584656, 563850.003064856864512 ], [ 419721.110196085763164, 563938.507660058094189 ], [ 419445.513351758359931, 564091.980440638959408 ], [ 419445.164251618494745, 564092.168740780558437 ], [ 419458.216391230758745, 564388.808855843963102 ], [ 419419.208841791842133, 564803.600134914391674 ], [ 419430.908339748799335, 564991.106390659231693 ], [ 419703.712414290755987, 565637.601424528751522 ], [ 421550.408828571788035, 564815.706005095737055 ], [ 421946.311985739332158, 564698.499742993852124 ] ] ] } },
{ "type": "Feature", "properties": { "FID": 3018, "WD23CD": "E05011438", "WD23NM": "Blakelaw", "WD23NMW": " ", "BNG_E": 421779, "BNG_N": 566997, "LONG": -1.66111, "LAT": 54.99708, "GlobalID": "661df9c8-f10d-4b1b-93aa-5bb3c07e086d", "Electoral wards and divisions Code": "E05011438", "Electoral wards and divisions": "Blakelaw", "total_population": 11468, "gp_count": 1.0, "gp_per_10k": 0.87, "flood_area_m2": 0.0, "ward_area_m2": 3064930.6884077108, "pct_flood_risk": 0.0, "flood_area_per_1k_pop": 0.0 }, "geometry": { "type": "Polygon", "coordinates": [ [ [ 422963.414873732777778, 566950.105598794994876 ], [ 423316.814434748026542, 566822.402095819124952 ], [ 423505.312980082002468, 566858.401811119052581 ], [ 423517.614681575330906, 566830.999717256636359 ], [ 423577.712916718388442, 566841.406735853524879 ], [ 423678.912867719132919, 566782.303663754835725 ], [ 423848.612767379556317, 566812.605015835142694 ], [ 423857.509273316012695, 566787.102312193717808 ], [ 423753.514209525194019, 566715.802673751604743 ], [ 423225.615900868666358, 566073.906178348115645 ], [ 423009.513053386064712, 566158.202151834848337 ], [ 422788.314718256762717, 566195.101575494511053 ], [ 422212.216138334362768, 566144.50592391542159 ], [ 422060.812026297149714, 566202.699051339295693 ], [ 421964.311828425445128, 566178.805865799891762 ], [ 421659.912422246532515, 566128.100097551010549 ], [ 421004.709809205378406, 566228.101430094917305 ], [ 420916.512180111603811, 566302.200314215384424 ], [ 420655.415298386709765, 566679.802548146224581 ], [ 420520.212481835333165, 566787.501914959633723 ], [ 420629.014713322161697, 566944.006959877558984 ], [ 421282.537398598971777, 567921.052420332795009 ], [ 421330.811582862981595, 567859.604471756145358 ], [ 421392.814854524855036, 567507.205224414006807 ], [ 421884.813138044264633, 567593.800668591167778 ], [ 421943.510080435196869, 567359.208133110543713 ], [ 422039.812180421955418, 567148.208602165686898 ], [ 422295.713836732320487, 567204.902603900409304 ], [ 422307.314615499868523, 567118.107486897963099 ], [ 422486.916653087711893, 567152.007874689530581 ], [ 422963.414873732777778, 566950.105598794994876 ] ] ] } },
{ "type": "Feature", "properties": { "FID": 3019, "WD23CD": "E05011439", "WD23NM": "Byker", "WD23NMW": " ", "BNG_E": 427231, "BNG_N": 564398, "LONG": -1.57614, "LAT": 54.97346, "GlobalID": "0c6baf71-59f2-44d3-9bec-2fd731304b86", "Electoral wards and divisions Code": "E05011439", "Electoral wards and divisions": "Byker", "total_population": 12034, "gp_count": 1.0, "gp_per_10k": 0.83, "flood_area_m2": 19362.44, "ward_area_m2": 2476753.0250032744, "pct_flood_risk": 0.78, "flood_area_per_1k_pop": 1608.9778959614425 }, "geometry": { "type": "MultiPolygon", "coordinates": [ [ [ [ 426276.21462185686687, 564629.40043577097822 ], [ 426276.442522211815231, 564626.497637573280372 ], [ 426253.112669462687336, 564645.05238725815434 ], [ 426276.21462185686687, 564629.40043577097822 ] ] ], [ [ [ 427374.011097468028311, 564955.206078251241706 ], [ 427363.210116032860242, 564881.407229619915597 ], [ 427482.813038209395017, 564961.404272166430019 ], [ 428100.310344459605403, 565225.498259516549297 ], [ 428308.713237254763953, 564478.302564406185411 ], [ 427825.313193693640642, 564428.607132601784542 ], [ 427830.614772824454121, 564395.806531203212216 ], [ 427887.513910820591263, 564402.604596289456822 ], [ 427932.012253949069418, 564053.004762965021655 ], [ 427888.816414675966371, 564019.804263804806396 ], [ 427928.013263620494399, 563817.502221826580353 ], [ 427910.508849978737999, 563602.903680437244475 ], [ 427950.612853768630885, 563587.908021946670488 ], [ 427928.489207865379285, 563408.625016988022253 ], [ 427920.114407568937168, 563413.108110744156875 ], [ 427807.915598984516691, 563473.900610532262363 ], [ 427616.110578230000101, 563505.901309406850487 ], [ 427170.109746642760001, 563476.299273432348855 ], [ 426946.808228561945725, 563574.200918445363641 ], [ 426470.615633240959141, 564098.601415096782148 ], [ 426440.711017459980212, 564239.90122027345933 ], [ 426375.311465224658605, 564272.602044493891299 ], [ 426333.014506967563648, 564380.601358925108798 ], [ 426248.816310113528743, 564454.200571320485324 ], [ 426236.613695511070546, 564521.501461487729102 ], [ 426289.711797476978973, 564563.50923547311686 ], [ 426287.114597151405178, 564628.000805928022601 ], [ 426226.773320415813942, 564666.000740589573979 ], [ 426153.215049266582355, 564724.503374089486897 ], [ 426944.81437573506264, 565158.008051219745539 ], [ 427288.509676669084001, 565357.400736764306203 ], [ 427374.011097468028311, 564955.206078251241706 ] ] ] ] } },
{ "type": "Feature", "properties": { "FID": 3020, "WD23CD": "E05011440", "WD23NM": "Callerton & Throckley", "WD23NMW": " ", "BNG_E": 418125, "BNG_N": 568604, "LONG": -1.71813, "LAT": 55.01167, "GlobalID": "799c6aec-9734-495b-bc77-9f4fcfe83ba9", "Electoral wards and divisions Code": "E05011440", "Electoral wards and divisions": "Callerton & Throckley", "total_population": 10509, "gp_count": 0.0, "gp_per_10k": 0.0, "flood_area_m2": 0.0, "ward_area_m2": 24048188.836352587, "pct_flood_risk": 0.0, "flood_area_per_1k_pop": 0.0 }, "geometry": { "type": "Polygon", "coordinates": [ [ [ 419587.456810650415719, 572086.287385934730992 ], [ 419700.910227846005, 572018.403819807921536 ], [ 419798.515225964772981, 571883.902278505847789 ], [ 419889.714000750274863, 571853.201078564045019 ], [ 419970.01266820426099, 571774.303711877204478 ], [ 420085.311765156569891, 571748.301114438101649 ], [ 420181.416246047068853, 571738.603910614270717 ], [ 420217.710969728359487, 571866.007314385613427 ], [ 420531.312138316920027, 571911.504737513023429 ], [ 420604.116070951975416, 571844.404082178603858 ], [ 420623.013678302697372, 571618.798816430731677 ], [ 421014.91003290086519, 571791.100008569192141 ], [ 421091.209954474586993, 571852.602510303840972 ], [ 421331.116691999603063, 571893.201146306586452 ], [ 421506.010260388720781, 571245.906303715193644 ], [ 421469.913012595498003, 570891.307568971067667 ], [ 421533.210335371841211, 570640.798963311128318 ], [ 421566.6111043363926, 570209.202158209984191 ], [ 421433.115085379336961, 569862.10121935303323 ], [ 421429.512058695720043, 569588.099874504609033 ], [ 421249.514134137309156, 569384.708167382283136 ], [ 420966.914038976887241, 569169.399627180187963 ], [ 420987.91431804059539, 569048.804167164140381 ], [ 420890.614112252078485, 568851.400623365887441 ], [ 420649.808322516037151, 568694.105629606870934 ], [ 420516.510119098937139, 568415.405447589000687 ], [ 420014.509180751163512, 568401.299579773331061 ], [ 419977.810438082669862, 568417.404979667277075 ], [ 419983.507836706587113, 568521.904993787989952 ], [ 419698.814596311480273, 568517.606321297236718 ], [ 419384.109338571259286, 568582.807736114715226 ], [ 419266.411322689149529, 568562.603598843794316 ], [ 419243.811612523684744, 568485.105828530271538 ], [ 419289.909540031163488, 568314.50465702067595 ], [ 419278.308716469269712, 568244.604679764132015 ], [ 419314.611650576756801, 568187.50110533949919 ], [ 419512.212467057572212, 568093.408014458720572 ], [ 419404.111520270642359, 567635.8993118169019 ], [ 419387.712006233050488, 567488.601403459440917 ], [ 419111.115324030164629, 567633.699908803333528 ], [ 419105.813930746167898, 567635.899003577185795 ], [ 419079.709963655681349, 567646.606178191257641 ], [ 418531.710914976487402, 567939.00215737905819 ], [ 417879.312782989465632, 568377.706426801625639 ], [ 417847.610398912569508, 568366.199729080894031 ], [ 417873.912202999868896, 567887.106852120254189 ], [ 417848.311191304179374, 567749.006350017385557 ], [ 417666.111933046719059, 567788.205254973261617 ], [ 417548.512642391840927, 567743.608026704285294 ], [ 417489.313055790786166, 567752.305559888714924 ], [ 417478.215280945703853, 567815.807453086716123 ], [ 417387.016696557286195, 567805.400404279353097 ], [ 417374.517167252488434, 567731.001733032404445 ], [ 416597.11504041479202, 567508.905552073149011 ], [ 416704.3089817109867, 567237.503394569968805 ], [ 417024.612908564973623, 567044.908438975922763 ], [ 417276.713964283582754, 566845.205323211965151 ], [ 417231.209434473596048, 566748.403022426296957 ], [ 417229.313115178665612, 566496.105102378991432 ], [ 417605.115022242709529, 566367.201552608050406 ], [ 417648.91219793423079, 565983.301537731196731 ], [ 417617.416027084866073, 565937.104775660554878 ], [ 416916.610614512930624, 565854.798808958963491 ], [ 416937.313880377856549, 565708.900576498243026 ], [ 417004.709088379866444, 565609.099040699191391 ], [ 417142.211867175938096, 565199.806248571025208 ], [ 417125.111596866627224, 565155.298959218198434 ], [ 417234.209993032622151, 565074.102300188620575 ], [ 416822.311664990149438, 565133.605207804124802 ], [ 416788.888655042101163, 565048.448027548729442 ], [ 416788.530654819798656, 565048.647427590563893 ], [ 416343.41344892187044, 565296.608686270425096 ], [ 416067.113047051127069, 565391.301635911455378 ], [ 416054.209529011161067, 565422.502635478740558 ], [ 416031.609821991820354, 565397.399843161576428 ], [ 415960.215821384394076, 565404.807737389579415 ], [ 415940.914122347719967, 565454.203626776463352 ], [ 415908.412145893496927, 565455.903116060653701 ], [ 415885.309470461215824, 565403.608112115412951 ], [ 415644.314737252076156, 565354.202138558146544 ], [ 415239.210402138589416, 565214.002138504642062 ], [ 415033.108722343575209, 565197.406880295486189 ], [ 414839.325393741892185, 565220.143268525833264 ], [ 414648.913965716492385, 565913.901555662509054 ], [ 414543.410214719420765, 566000.306885261670686 ], [ 414452.112775491783395, 566137.8074772747932 ], [ 414492.711494494054932, 566732.807041993364692 ], [ 414584.70990722940769, 566864.699222716153599 ], [ 414544.111052448221017, 567592.900945768109523 ], [ 414576.909848541603424, 567597.899459512438625 ], [ 414564.814189694356173, 567752.805172764696181 ], [ 415478.614569390076213, 567631.20021685003303 ], [ 415595.01010725076776, 567622.702641615411267 ], [ 415670.411191371153109, 567659.002338904188946 ], [ 415645.411667938751634, 568450.305431279353797 ], [ 415679.513347537606023, 569070.207909238059074 ], [ 416017.709054644335993, 569034.70813651138451 ], [ 416066.314063124766108, 569970.400838346453384 ], [ 416550.109539311262779, 569978.608002788270824 ], [ 416719.009656927140895, 570035.101582486182451 ], [ 416740.108779027243145, 570105.401429113582708 ], [ 416714.911871739604976, 570138.302075474639423 ], [ 416765.709639969631098, 570285.999778860947117 ], [ 416849.116648557246663, 570302.904796476359479 ], [ 416772.008806180092506, 570457.700652835308574 ], [ 416762.41157484886935, 570593.30192397616338 ], [ 417032.115891429944895, 570590.202623022021726 ], [ 417209.211438128491864, 570639.798513033078052 ], [ 417235.810042741301004, 570828.104728191625327 ], [ 417440.609073463769164, 570888.707472027861513 ], [ 417553.042642719752621, 570993.623194598592818 ], [ 417677.192598410823848, 570992.243184621795081 ], [ 417892.022460193489678, 571047.813137963414192 ], [ 417892.80903664289508, 571095.80809580872301 ], [ 418350.409836877370253, 571092.299071501824073 ], [ 418188.813459847529884, 571603.80209713766817 ], [ 418558.110165830294136, 571701.404230304062366 ], [ 418530.51345740724355, 571895.998362258309498 ], [ 418719.507202381268144, 571909.104812200530432 ], [ 418716.910011651460081, 572010.505830795271322 ], [ 418800.210100538504776, 571990.801483320537955 ], [ 419032.111318214156199, 572016.504283048561774 ], [ 419218.911862697335891, 572084.404996031080373 ], [ 419255.808565300016198, 572164.702014043810777 ], [ 419587.456810650415719, 572086.287385934730992 ] ] ] } },
{ "type": "Feature", "properties": { "FID": 3021, "WD23CD": "E05011441", "WD23NM": "Castle", "WD23NMW": " ", "BNG_E": 421116, "BNG_N": 573854, "LONG": -1.67097, "LAT": 55.05873, "GlobalID": "875b5962-f5da-4a22-99bf-b57b62410e82", "Electoral wards and divisions Code": "E05011441", "Electoral wards and divisions": "Castle (Newcastle upon Tyne)", "total_population": 14201, "gp_count": 0.0, "gp_per_10k": 0.0, "flood_area_m2": 155277.55, "ward_area_m2": 21378647.650522731, "pct_flood_risk": 0.73, "flood_area_per_1k_pop": 10934.268713470881 }, "geometry": { "type": "Polygon", "coordinates": [ [ [ 423225.715096338593867, 574536.304123380687088 ], [ 423130.410446870140731, 574485.308631924563088 ], [ 423111.710649498680141, 574403.901898377924226 ], [ 423280.709609344368801, 574203.699452041066252 ], [ 423598.416301145509351, 572697.600258096121252 ], [ 423469.413784668082371, 572667.098630230757408 ], [ 423208.417371371469926, 572426.707969967043027 ], [ 423121.3173249362153, 572233.603809390682727 ], [ 423199.811266083037481, 571952.404951331438497 ], [ 423762.214011668344028, 571945.805605740402825 ], [ 423853.815659726213198, 571398.001729395939037 ], [ 423830.514802338904701, 571196.79920887388289 ], [ 423756.111236648052, 571006.503546101273969 ], [ 423604.311598144762684, 570809.200299846823327 ], [ 423007.213480704347603, 570311.603766864282079 ], [ 422643.416870139946695, 569931.502704424434341 ], [ 421939.814819325343706, 568880.602039332152344 ], [ 421545.116064163856208, 568929.198534981929697 ], [ 420890.614112252078485, 568851.400623365887441 ], [ 420987.91431804059539, 569048.804167164140381 ], [ 420966.914038976887241, 569169.399627180187963 ], [ 421249.514134137309156, 569384.708167382283136 ], [ 421429.512058695720043, 569588.099874504609033 ], [ 421433.115085379336961, 569862.10121935303323 ], [ 421566.6111043363926, 570209.202158209984191 ], [ 421533.210335371841211, 570640.798963311128318 ], [ 421469.913012595498003, 570891.307568971067667 ], [ 421506.010260388720781, 571245.906303715193644 ], [ 421331.116691999603063, 571893.201146306586452 ], [ 421091.209954474586993, 571852.602510303840972 ], [ 421014.91003290086519, 571791.100008569192141 ], [ 420623.013678302697372, 571618.798816430731677 ], [ 420604.116070951975416, 571844.404082178603858 ], [ 420531.312138316920027, 571911.504737513023429 ], [ 420217.710969728359487, 571866.007314385613427 ], [ 420181.416246047068853, 571738.603910614270717 ], [ 420085.311765156569891, 571748.301114438101649 ], [ 419970.01266820426099, 571774.303711877204478 ], [ 419889.714000750274863, 571853.201078564045019 ], [ 419798.515225964772981, 571883.902278505847789 ], [ 419700.910227846005, 572018.403819807921536 ], [ 419587.456810650415719, 572086.287385934730992 ], [ 419580.792865622497629, 572137.823024139855988 ], [ 419632.143049727659672, 572244.963114216458052 ], [ 419622.193215636711102, 572388.393227410153486 ], [ 419652.593322567816358, 572442.693286844296381 ], [ 419580.203563517425209, 572724.693458913709037 ], [ 419606.293715646315832, 572814.913554619881324 ], [ 419549.113695381092839, 572947.233525825315155 ], [ 419465.353554931294639, 573011.273423512233421 ], [ 419391.013449637684971, 573141.143340883194469 ], [ 418589.352257443184499, 573181.51340743561741 ], [ 418379.093493314809166, 574591.193487664102577 ], [ 418998.80320185481105, 574636.523203087504953 ], [ 418956.123184419528116, 574943.663207988254726 ], [ 418963.713105245784391, 575201.843202339834534 ], [ 419191.372917716158554, 575195.843105526641011 ], [ 419196.082905781629961, 575235.04310625710059 ], [ 419459.343022957502399, 575194.653191998950206 ], [ 419465.603029558144044, 575159.90319175820332 ], [ 419812.593137749645393, 575068.733283688197844 ], [ 419858.983168214559555, 575148.863311914610676 ], [ 419827.463406637019943, 575404.787348232697695 ], [ 420159.509436783264391, 575491.900101710227318 ], [ 420549.311150161956903, 575666.600141162984073 ], [ 421688.514562738128006, 576047.00088231312111 ], [ 422592.41232867562212, 576160.098834663047455 ], [ 422728.414862559002358, 575876.100314077688381 ], [ 422972.410715233825613, 575200.803861808381043 ], [ 423104.216023944492918, 575025.004341581137851 ], [ 423225.715096338593867, 574536.304123380687088 ] ] ] } },
{ "type": "Feature", "properties": { "FID": 3022, "WD23CD": "E05011442", "WD23NM": "Chapel", "WD23NMW": " ", "BNG_E": 417841, "BNG_N": 567195, "LONG": -1.72265, "LAT": 54.99902, "GlobalID": "fc89ffb2-f1ee-4596-999e-9b9b0967154a", "Electoral wards and divisions Code": "E05011442", "Electoral wards and divisions": "Chapel", "total_population": 9331, "gp_count": 0.0, "gp_per_10k": 0.0, "flood_area_m2": 0.0, "ward_area_m2": 2878894.8778067539, "pct_flood_risk": 0.0, "flood_area_per_1k_pop": 0.0 }, "geometry": { "type": "Polygon", "coordinates": [ [ [ 419105.813930746167898, 567635.899003577185795 ], [ 418812.512485976505559, 567014.906769259599969 ], [ 418520.109471768373623, 566012.803301891195588 ], [ 418167.114617594110314, 566142.405629596207291 ], [ 417863.812228918774053, 566316.80580690363422 ], [ 417655.517169328464661, 566476.900142459082417 ], [ 417276.713964283582754, 566845.205323211965151 ], [ 417024.612908564973623, 567044.908438975922763 ], [ 416704.3089817109867, 567237.503394569968805 ], [ 416597.11504041479202, 567508.905552073149011 ], [ 417374.517167252488434, 567731.001733032404445 ], [ 417387.016696557286195, 567805.400404279353097 ], [ 417478.215280945703853, 567815.807453086716123 ], [ 417489.313055790786166, 567752.305559888714924 ], [ 417548.512642391840927, 567743.608026704285294 ], [ 417666.111933046719059, 567788.205254973261617 ], [ 417848.311191304179374, 567749.006350017385557 ], [ 417873.912202999868896, 567887.106852120254189 ], [ 417847.610398912569508, 568366.199729080894031 ], [ 417879.312782989465632, 568377.706426801625639 ], [ 418531.710914976487402, 567939.00215737905819 ], [ 419079.709963655681349, 567646.606178191257641 ], [ 419105.813930746167898, 567635.899003577185795 ] ] ] } },
{ "type": "Feature", "properties": { "FID": 3023, "WD23CD": "E05011443", "WD23NM": "Dene & South Gosforth", "WD23NMW": " ", "BNG_E": 425414, "BNG_N": 567288, "LONG": -1.60427, "LAT": 54.99953, "GlobalID": "b4949e05-ca8a-448b-b700-f073e4efe19d", "Electoral wards and divisions Code": "E05011443", "Electoral wards and divisions": "Dene & South Gosforth", "total_population": 9653, "gp_count": 0.0, "gp_per_10k": 0.0, "flood_area_m2": 42749.23, "ward_area_m2": 2716447.8187747425, "pct_flood_risk": 1.57, "flood_area_per_1k_pop": 4428.5952553610277 }, "geometry": { "type": "Polygon", "coordinates": [ [ [ 425663.811665653600357, 568436.599627147312276 ], [ 426451.314167450764216, 568307.606533866608515 ], [ 426709.813450927671511, 568336.808103555813432 ], [ 427010.214563312067185, 568439.298379720188677 ], [ 427146.110150807653554, 567943.000403299578466 ], [ 427094.215686010255013, 567956.30668226047419 ], [ 427078.113151486439165, 567832.30225171870552 ], [ 427056.115329563443083, 567837.80078427225817 ], [ 427037.415555701474659, 567784.206176708103158 ], [ 426975.610488171048928, 567810.498755651642568 ], [ 426931.614810074563138, 567757.104189125820994 ], [ 427018.509594530507457, 567721.204278860008344 ], [ 426917.013051250076387, 567525.200857803691179 ], [ 426954.610569477488752, 567509.005414536804892 ], [ 426863.312772218603641, 567143.500410432228819 ], [ 426569.51667004195042, 567212.500982303055935 ], [ 426569.516819018288516, 567303.304960352252237 ], [ 426413.214977002004161, 567277.002466195845045 ], [ 426412.514020621660165, 567231.30557017493993 ], [ 426381.61148583953036, 567232.005368677782826 ], [ 426368.015471587423235, 567324.708764015464112 ], [ 426209.51221309741959, 567271.603965364163741 ], [ 426230.215455311059486, 567154.607454577228054 ], [ 426120.011828687158413, 567101.902530655963346 ], [ 426091.714812093239743, 567120.507230111630633 ], [ 426113.712601980892941, 567047.50811817147769 ], [ 426032.910943858441897, 567021.505492504453287 ], [ 426187.513889547204599, 566432.404148276080377 ], [ 426221.211358798027504, 566437.402676868252456 ], [ 426254.711035296262708, 566365.003464334062301 ], [ 426451.809114675561432, 566201.00035807385575 ], [ 426567.313982589985244, 566267.501487812609412 ], [ 426394.811094730684999, 566118.503860807511955 ], [ 426393.409396094619296, 566117.804059699759819 ], [ 426356.215912653540727, 566152.704073243774474 ], [ 426232.416518275451381, 566131.300208211643621 ], [ 426178.510252721374854, 566168.899406451149844 ], [ 426084.516701758548152, 566359.604835920035839 ], [ 426124.810255698801484, 566439.302097550360486 ], [ 426029.810804138076492, 566790.801523864152841 ], [ 425834.815007445809897, 567072.200967863434926 ], [ 425606.912942215334624, 567170.902793142944574 ], [ 425306.809332695906051, 567210.801481336704455 ], [ 425234.615680203947704, 567201.704090161249042 ], [ 425230.814711328363046, 567167.603764651110396 ], [ 425093.410781630256679, 567170.502996357972734 ], [ 425087.21046801522607, 567192.306714936043136 ], [ 425042.810941438016016, 567126.605572262546048 ], [ 425019.609337091911584, 567148.409294535871595 ], [ 424952.816204380302224, 567102.002571198157966 ], [ 424641.911707893188577, 566823.102198821608908 ], [ 424540.109726519323885, 567272.604003084590659 ], [ 424633.509730316698551, 567367.506816351553425 ], [ 424682.914079606183805, 567533.009198166662827 ], [ 424914.410496380995028, 567689.104228508658707 ], [ 424980.412117668311112, 567855.506385293207131 ], [ 425010.308697260043118, 567844.999388376367278 ], [ 425021.414758946513757, 567994.106483613839373 ], [ 425167.014133527758531, 568040.503159907180816 ], [ 425261.914597540453542, 568287.802006180165336 ], [ 425486.913919463055208, 568458.403376165078953 ], [ 425663.811665653600357, 568436.599627147312276 ] ] ] } },
{ "type": "Feature", "properties": { "FID": 3024, "WD23CD": "E05011444", "WD23NM": "Denton & Westerhope", "WD23NMW": " ", "BNG_E": 419575, "BNG_N": 566604, "LONG": -1.69559, "LAT": 54.99364, "GlobalID": "c6e7cd02-d0ec-4be8-8495-16a01c8504dd", "Electoral wards and divisions Code": "E05011444", "Electoral wards and divisions": "Denton & Westerhope", "total_population": 12385, "gp_count": 1.0, "gp_per_10k": 0.81, "flood_area_m2": 0.0, "ward_area_m2": 2514249.7987197461, "pct_flood_risk": 0.0, "flood_area_per_1k_pop": 0.0 }, "geometry": { "type": "Polygon", "coordinates": [ [ [ 420629.014713322161697, 566944.006959877558984 ], [ 420520.212481835333165, 566787.501914959633723 ], [ 419703.712414290755987, 565637.601424528751522 ], [ 419335.709991430048831, 565776.801567724556662 ], [ 418520.109471768373623, 566012.803301891195588 ], [ 418812.512485976505559, 567014.906769259599969 ], [ 419105.813930746167898, 567635.899003577185795 ], [ 419111.115324030164629, 567633.699908803333528 ], [ 419387.712006233050488, 567488.601403459440917 ], [ 419404.111520270642359, 567635.8993118169019 ], [ 419596.509818651946262, 567504.906840680749156 ], [ 419580.613431149977259, 567478.40436033019796 ], [ 419658.207560410024598, 567427.808870221604593 ], [ 419672.413848601630889, 567456.900549517362379 ], [ 419846.409206549404189, 567348.90146782703232 ], [ 420042.814649417821784, 567305.903737787157297 ], [ 420074.112911603995599, 567258.607345635187812 ], [ 420336.611052779713646, 567181.299340144032612 ], [ 420332.109222838829737, 567130.603859329479747 ], [ 420465.613655539928004, 567071.800528799183667 ], [ 420629.014713322161697, 566944.006959877558984 ] ] ] } },
{ "type": "Feature", "properties": { "FID": 3025, "WD23CD": "E05011445", "WD23NM": "Elswick", "WD23NMW": " ", "BNG_E": 422726, "BNG_N": 563797, "LONG": -1.64656, "LAT": 54.96828, "GlobalID": "84cd0e02-2508-48e9-b61d-eda508e229aa", "Electoral wards and divisions Code": "E05011445", "Electoral wards and divisions": "Elswick", "total_population": 16123, "gp_count": 5.0, "gp_per_10k": 3.1, "flood_area_m2": 22766.75, "ward_area_m2": 2979962.3663082998, "pct_flood_risk": 0.76, "flood_area_per_1k_pop": 1412.0666129132296 }, "geometry": { "type": "Polygon", "coordinates": [ [ [ 422039.011306488595437, 564675.006473223911598 ], [ 422895.615640246018302, 564438.504009725176729 ], [ 423818.411724614619743, 564185.206846731482074 ], [ 423648.810730351542588, 564058.002611225587316 ], [ 423826.714881702209823, 563818.701335047604516 ], [ 423422.71454512065975, 563615.898320512962528 ], [ 423494.809401163191069, 563417.2055755907204 ], [ 423498.511510226177052, 563251.203401532489806 ], [ 424038.217414466198534, 563436.901061490993015 ], [ 424155.81702897750074, 563507.801034698495641 ], [ 424321.410625190066639, 563346.907437086571008 ], [ 424411.808425057097338, 563161.021141573903151 ], [ 424405.11390494031366, 563155.302227237145416 ], [ 424182.513377803144976, 563003.205493605695665 ], [ 423946.209795431757811, 562916.000229206867516 ], [ 423532.41510370495962, 562894.906106094946153 ], [ 423185.809245716198348, 562915.900093671050854 ], [ 422674.615303978789598, 563037.205386470304802 ], [ 421944.012472970644012, 563322.603733309311792 ], [ 421373.916130472207442, 563404.600122180883773 ], [ 421367.566031344234943, 563405.322619808139279 ], [ 421371.912254337628838, 563521.106793358805589 ], [ 421623.312502084474545, 563475.999774074996822 ], [ 421625.216996817151085, 563535.802709216135554 ], [ 421525.311473313544411, 563602.203706365311518 ], [ 421557.813419704209082, 563643.601821543532424 ], [ 421605.115338571835309, 563628.906146601540968 ], [ 421632.909419853240252, 563654.098848258843645 ], [ 421680.615119953290559, 563896.899272964219563 ], [ 421814.308747058385052, 564031.300872096559033 ], [ 421946.311985739332158, 564698.499742993852124 ], [ 422039.011306488595437, 564675.006473223911598 ] ] ] } },
{ "type": "Feature", "properties": { "FID": 3026, "WD23CD": "E05011446", "WD23NM": "Fawdon & West Gosforth", "WD23NMW": " ", "BNG_E": 422880, "BNG_N": 568762, "LONG": -1.64376, "LAT": 55.01289, "GlobalID": "9efe2f60-2b29-4edd-ac0f-778f92dcf917", "Electoral wards and divisions Code": "E05011446", "Electoral wards and divisions": "Fawdon & West Gosforth", "total_population": 9910, "gp_count": 0.0, "gp_per_10k": 0.0, "flood_area_m2": 119210.33, "ward_area_m2": 2592951.6005675406, "pct_flood_risk": 4.6, "flood_area_per_1k_pop": 12029.296670030273 }, "geometry": { "type": "Polygon", "coordinates": [ [ [ 424351.009058412630111, 568652.30793534417171 ], [ 424417.414871150045656, 568161.608616069890559 ], [ 423997.114310751669109, 568013.601211710716598 ], [ 423210.609722590190358, 567581.304798776516691 ], [ 423045.91403700504452, 568069.30470832507126 ], [ 422859.509710931451991, 568035.404182385536842 ], [ 422933.508850267273374, 568320.002555432496592 ], [ 422960.214563139539678, 568313.804403581889346 ], [ 422968.014485966938082, 568347.504806442535482 ], [ 422761.508567393815611, 568352.702959596994333 ], [ 422807.112098906189203, 568518.805431002052501 ], [ 422581.312843214604072, 568590.304749604081735 ], [ 422368.911668291897513, 568584.106210357858799 ], [ 422368.210835602250881, 568544.597582433489151 ], [ 422189.61486481456086, 568568.200998262967914 ], [ 421865.411448862578254, 568645.399296105257235 ], [ 421818.810437297797762, 568691.106267401948571 ], [ 421939.814819325343706, 568880.602039332152344 ], [ 422643.416870139946695, 569931.502704424434341 ], [ 422775.609738021681551, 569939.200454936479218 ], [ 423037.109718108433299, 569868.000492666033097 ], [ 423098.716190701699816, 569522.498744886834174 ], [ 423083.610840211098548, 569307.799857994657941 ], [ 423023.908316602522973, 569290.904624152230099 ], [ 423203.708242230990436, 569152.004295951221138 ], [ 423421.41085265687434, 569094.700811769464053 ], [ 423419.613405519281514, 568917.401715532760136 ], [ 424083.811158201773651, 568709.101711011840962 ], [ 424260.70909035357181, 568671.502430816763081 ], [ 424345.814762200752739, 568704.802922760252841 ], [ 424351.009058412630111, 568652.30793534417171 ] ] ] } },
{ "type": "Feature", "properties": { "FID": 3027, "WD23CD": "E05011447", "WD23NM": "Gosforth", "WD23NMW": " ", "BNG_E": 424186, "BNG_N": 567717, "LONG": -1.62343, "LAT": 55.00344, "GlobalID": "6c0e0417-ec61-4221-b0bb-5c5547e73da0", "Electoral wards and divisions Code": "E05011447", "Electoral wards and divisions": "Gosforth (Newcastle upon Tyne)", "total_population": 10541, "gp_count": 4.0, "gp_per_10k": 3.79, "flood_area_m2": 0.0, "ward_area_m2": 2280190.654659661, "pct_flood_risk": 0.0, "flood_area_per_1k_pop": 0.0 }, "geometry": { "type": "Polygon", "coordinates": [ [ [ 425486.913919463055208, 568458.403376165078953 ], [ 425261.914597540453542, 568287.802006180165336 ], [ 425167.014133527758531, 568040.503159907180816 ], [ 425021.414758946513757, 567994.106483613839373 ], [ 425010.308697260043118, 567844.999388376367278 ], [ 424980.412117668311112, 567855.506385293207131 ], [ 424914.410496380995028, 567689.104228508658707 ], [ 424682.914079606183805, 567533.009198166662827 ], [ 424633.509730316698551, 567367.506816351553425 ], [ 424540.109726519323885, 567272.604003084590659 ], [ 424641.911707893188577, 566823.102198821608908 ], [ 424455.012594988453202, 566862.501031297491863 ], [ 423857.509273316012695, 566787.102312193717808 ], [ 423848.612767379556317, 566812.605015835142694 ], [ 423678.912867719132919, 566782.303663754835725 ], [ 423577.712916718388442, 566841.406735853524879 ], [ 423517.614681575330906, 566830.999717256636359 ], [ 423505.312980082002468, 566858.401811119052581 ], [ 423316.814434748026542, 566822.402095819124952 ], [ 422963.414873732777778, 566950.105598794994876 ], [ 423153.314870227361098, 567549.103994387667626 ], [ 423210.609722590190358, 567581.304798776516691 ], [ 423997.114310751669109, 568013.601211710716598 ], [ 424417.414871150045656, 568161.608616069890559 ], [ 424351.009058412630111, 568652.30793534417171 ], [ 424791.50963581824908, 568602.402312420657836 ], [ 425486.913919463055208, 568458.403376165078953 ] ] ] } },
{ "type": "Feature", "properties": { "FID": 3028, "WD23CD": "E05011448", "WD23NM": "Heaton", "WD23NMW": " ", "BNG_E": 427164, "BNG_N": 566028, "LONG": -1.57703, "LAT": 54.98811, "GlobalID": "742943e8-3b33-4db8-9e72-ff777b7c1395", "Electoral wards and divisions Code": "E05011448", "Electoral wards and divisions": "Heaton (Newcastle upon Tyne)", "total_population": 10593, "gp_count": 1.0, "gp_per_10k": 0.94, "flood_area_m2": 14112.44, "ward_area_m2": 1670108.5783025115, "pct_flood_risk": 0.85, "flood_area_per_1k_pop": 1332.2420466345702 }, "geometry": { "type": "Polygon", "coordinates": [ [ [ 428086.812733199971262, 566492.705948025570251 ], [ 427747.709945405251347, 565822.307496272958815 ], [ 427483.010579096735455, 565510.506708657718264 ], [ 427288.509676669084001, 565357.400736764306203 ], [ 426944.81437573506264, 565158.008051219745539 ], [ 426876.809131532325409, 565355.301555435173213 ], [ 426857.81255624681944, 565561.302624502684921 ], [ 426706.713618759356905, 565532.301002696272917 ], [ 426705.311839187517762, 565326.599842581315897 ], [ 426572.508700689068064, 565308.505156282451935 ], [ 426566.910317870613653, 565342.405460300855339 ], [ 426406.313124526583124, 565257.000056937918998 ], [ 426328.80967122700531, 565380.704664475400932 ], [ 426237.116348766314331, 565315.003604259574786 ], [ 426318.115774733247235, 565395.100563458981924 ], [ 426358.813337449275423, 565516.005878134281375 ], [ 426438.914108779456001, 565524.403442953480408 ], [ 426403.715882005402818, 565622.305543711874634 ], [ 426525.709762751997914, 565768.803648388013244 ], [ 426513.309106096741743, 565901.105884042102844 ], [ 426448.816232823126484, 565930.907408603234217 ], [ 426456.113085417833645, 566029.699200885137543 ], [ 426394.811094730684999, 566118.503860807511955 ], [ 426567.313982589985244, 566267.501487812609412 ], [ 427048.314398260554299, 566539.70327418053057 ], [ 427736.612330368661787, 566720.000775543623604 ], [ 428211.008493943605572, 566898.399682628805749 ], [ 428060.511040319339372, 566501.10355350188911 ], [ 428086.812733199971262, 566492.705948025570251 ] ] ] } },
{ "type": "Feature", "properties": { "FID": 3029, "WD23CD": "E05011449", "WD23NM": "Kenton", "WD23NMW": " ", "BNG_E": 422228, "BNG_N": 567821, "LONG": -1.65403, "LAT": 55.00447, "GlobalID": "e75e137b-2b4c-434d-97da-cdbcd5c80622", "Electoral wards and divisions Code": "E05011449", "Electoral wards and divisions": "Kenton (Newcastle upon Tyne)", "total_population": 11528, "gp_count": 2.0, "gp_per_10k": 1.73, "flood_area_m2": 0.0, "ward_area_m2": 2094987.326021957, "pct_flood_risk": 0.0, "flood_area_per_1k_pop": 0.0 }, "geometry": { "type": "Polygon", "coordinates": [ [ [ 423210.609722590190358, 567581.304798776516691 ], [ 423153.314870227361098, 567549.103994387667626 ], [ 422963.414873732777778, 566950.105598794994876 ], [ 422486.916653087711893, 567152.007874689530581 ], [ 422307.314615499868523, 567118.107486897963099 ], [ 422295.713836732320487, 567204.902603900409304 ], [ 422039.812180421955418, 567148.208602165686898 ], [ 421943.510080435196869, 567359.208133110543713 ], [ 421884.813138044264633, 567593.800668591167778 ], [ 421392.814854524855036, 567507.205224414006807 ], [ 421330.811582862981595, 567859.604471756145358 ], [ 421282.537398598971777, 567921.052420332795009 ], [ 421818.810437297797762, 568691.106267401948571 ], [ 421865.411448862578254, 568645.399296105257235 ], [ 422189.61486481456086, 568568.200998262967914 ], [ 422368.210835602250881, 568544.597582433489151 ], [ 422368.911668291897513, 568584.106210357858799 ], [ 422581.312843214604072, 568590.304749604081735 ], [ 422807.112098906189203, 568518.805431002052501 ], [ 422761.508567393815611, 568352.702959596994333 ], [ 422968.014485966938082, 568347.504806442535482 ], [ 422960.214563139539678, 568313.804403581889346 ], [ 422933.508850267273374, 568320.002555432496592 ], [ 422859.509710931451991, 568035.404182385536842 ], [ 423045.91403700504452, 568069.30470832507126 ], [ 423210.609722590190358, 567581.304798776516691 ] ] ] } },
{ "type": "Feature", "properties": { "FID": 3030, "WD23CD": "E05011450", "WD23NM": "Kingston Park South & Newbiggin Hall", "WD23NMW": " ", "BNG_E": 420388, "BNG_N": 567937, "LONG": -1.68279, "LAT": 55.00559, "GlobalID": "540c2535-31c8-4bc9-81e5-7ef40e1a674a", "Electoral wards and divisions Code": "E05011450", "Electoral wards and divisions": "Kingston Park South & Newbiggin Hall", "total_population": 10750, "gp_count": 1.0, "gp_per_10k": 0.93, "flood_area_m2": 0.0, "ward_area_m2": 2730265.1757434998, "pct_flood_risk": 0.0, "flood_area_per_1k_pop": 0.0 }, "geometry": { "type": "Polygon", "coordinates": [ [ [ 421939.814819325343706, 568880.602039332152344 ], [ 421818.810437297797762, 568691.106267401948571 ], [ 421282.537398598971777, 567921.052420332795009 ], [ 420629.014713322161697, 566944.006959877558984 ], [ 420465.613655539928004, 567071.800528799183667 ], [ 420332.109222838829737, 567130.603859329479747 ], [ 420336.611052779713646, 567181.299340144032612 ], [ 420074.112911603995599, 567258.607345635187812 ], [ 420042.814649417821784, 567305.903737787157297 ], [ 419846.409206549404189, 567348.90146782703232 ], [ 419672.413848601630889, 567456.900549517362379 ], [ 419658.207560410024598, 567427.808870221604593 ], [ 419580.613431149977259, 567478.40436033019796 ], [ 419596.509818651946262, 567504.906840680749156 ], [ 419404.111520270642359, 567635.8993118169019 ], [ 419512.212467057572212, 568093.408014458720572 ], [ 419314.611650576756801, 568187.50110533949919 ], [ 419278.308716469269712, 568244.604679764132015 ], [ 419289.909540031163488, 568314.50465702067595 ], [ 419243.811612523684744, 568485.105828530271538 ], [ 419266.411322689149529, 568562.603598843794316 ], [ 419384.109338571259286, 568582.807736114715226 ], [ 419698.814596311480273, 568517.606321297236718 ], [ 419983.507836706587113, 568521.904993787989952 ], [ 419977.810438082669862, 568417.404979667277075 ], [ 420014.509180751163512, 568401.299579773331061 ], [ 420516.510119098937139, 568415.405447589000687 ], [ 420649.808322516037151, 568694.105629606870934 ], [ 420890.614112252078485, 568851.400623365887441 ], [ 421545.116064163856208, 568929.198534981929697 ], [ 421939.814819325343706, 568880.602039332152344 ] ] ] } },
{ "type": "Feature", "properties": { "FID": 3031, "WD23CD": "E05011451", "WD23NM": "Lemington", "WD23NMW": " ", "BNG_E": 418323, "BNG_N": 565268, "LONG": -1.71524, "LAT": 54.98168, "GlobalID": "c5d193c8-99ec-4850-9918-da3f67c40c67", "Electoral wards and divisions Code": "E05011451", "Electoral wards and divisions": "Lemington", "total_population": 10207, "gp_count": 0.0, "gp_per_10k": 0.0, "flood_area_m2": 0.0, "ward_area_m2": 4763203.7940933751, "pct_flood_risk": 0.0, "flood_area_per_1k_pop": 0.0 }, "geometry": { "type": "Polygon", "coordinates": [ [ [ 418520.109471768373623, 566012.803301891195588 ], [ 419335.709991430048831, 565776.801567724556662 ], [ 419703.712414290755987, 565637.601424528751522 ], [ 419430.908339748799335, 564991.106390659231693 ], [ 419419.208841791842133, 564803.600134914391674 ], [ 419458.216391230758745, 564388.808855843963102 ], [ 419445.164251618494745, 564092.168740780558437 ], [ 418867.407602995750494, 564403.804795227246359 ], [ 418766.611618964932859, 564412.302425403730012 ], [ 418674.307917832862586, 564467.606691356049851 ], [ 418534.009662435681093, 564448.102316370350309 ], [ 418495.909226822666824, 564412.40249355067499 ], [ 418647.907180934562348, 564445.802881955634803 ], [ 419135.108703112462536, 564247.099578702589497 ], [ 419099.811513550695963, 564151.406946591334417 ], [ 419138.810639129544143, 564111.408333428553306 ], [ 418925.114908069197554, 564060.302997370949015 ], [ 418815.010328501579352, 563964.100425847922452 ], [ 418707.008251868071966, 563773.804764259024523 ], [ 418600.712978016294073, 563704.304566816077568 ], [ 418352.511858570214827, 563698.406154679483734 ], [ 418009.607882664189674, 563766.00670493254438 ], [ 417815.914754615689162, 563872.506249585188925 ], [ 417675.509618622716516, 564020.00413005205337 ], [ 417650.708408999198582, 564099.601391316507943 ], [ 417706.708719818328973, 564368.004887931514531 ], [ 417630.507926119898912, 564559.900050794123672 ], [ 416813.909971527289599, 565024.3065262142336 ], [ 416815.608467125392053, 565075.601818044553511 ], [ 416796.512859760376159, 565044.200826658401638 ], [ 416788.888655042101163, 565048.448027548729442 ], [ 416822.311664990149438, 565133.605207804124802 ], [ 417234.209993032622151, 565074.102300188620575 ], [ 417125.111596866627224, 565155.298959218198434 ], [ 417142.211867175938096, 565199.806248571025208 ], [ 417004.709088379866444, 565609.099040699191391 ], [ 416937.313880377856549, 565708.900576498243026 ], [ 416916.610614512930624, 565854.798808958963491 ], [ 417617.416027084866073, 565937.104775660554878 ], [ 417648.91219793423079, 565983.301537731196731 ], [ 417605.115022242709529, 566367.201552608050406 ], [ 417229.313115178665612, 566496.105102378991432 ], [ 417231.209434473596048, 566748.403022426296957 ], [ 417276.713964283582754, 566845.205323211965151 ], [ 417655.517169328464661, 566476.900142459082417 ], [ 417863.812228918774053, 566316.80580690363422 ], [ 418167.114617594110314, 566142.405629596207291 ], [ 418520.109471768373623, 566012.803301891195588 ] ] ] } },
{ "type": "Feature", "properties": { "FID": 3032, "WD23CD": "E05011452", "WD23NM": "Manor Park", "WD23NMW": " ", "BNG_E": 427573, "BNG_N": 567155, "LONG": -1.57053, "LAT": 54.99822, "GlobalID": "cfc473eb-0ee5-4a1e-92bb-003750a65d46", "Electoral wards and divisions Code": "E05011452", "Electoral wards and divisions": "Manor Park (Newcastle upon Tyne)", "total_population": 9442, "gp_count": 2.0, "gp_per_10k": 2.12, "flood_area_m2": 1601.19, "ward_area_m2": 2411256.0489522014, "pct_flood_risk": 0.07, "flood_area_per_1k_pop": 169.58165642872271 }, "geometry": { "type": "Polygon", "coordinates": [ [ [ 428337.71142885053996, 567974.702058960217983 ], [ 428314.212199197791051, 567359.20771985896863 ], [ 428211.008493943605572, 566898.399682628805749 ], [ 427736.612330368661787, 566720.000775543623604 ], [ 427048.314398260554299, 566539.70327418053057 ], [ 426567.313982589985244, 566267.501487812609412 ], [ 426451.809114675561432, 566201.00035807385575 ], [ 426254.711035296262708, 566365.003464334062301 ], [ 426221.211358798027504, 566437.402676868252456 ], [ 426187.513889547204599, 566432.404148276080377 ], [ 426032.910943858441897, 567021.505492504453287 ], [ 426113.712601980892941, 567047.50811817147769 ], [ 426091.714812093239743, 567120.507230111630633 ], [ 426120.011828687158413, 567101.902530655963346 ], [ 426230.215455311059486, 567154.607454577228054 ], [ 426209.51221309741959, 567271.603965364163741 ], [ 426368.015471587423235, 567324.708764015464112 ], [ 426381.61148583953036, 567232.005368677782826 ], [ 426412.514020621660165, 567231.30557017493993 ], [ 426413.214977002004161, 567277.002466195845045 ], [ 426569.516819018288516, 567303.304960352252237 ], [ 426569.51667004195042, 567212.500982303055935 ], [ 426863.312772218603641, 567143.500410432228819 ], [ 426954.610569477488752, 567509.005414536804892 ], [ 426917.013051250076387, 567525.200857803691179 ], [ 427018.509594530507457, 567721.204278860008344 ], [ 426931.614810074563138, 567757.104189125820994 ], [ 426975.610488171048928, 567810.498755651642568 ], [ 427037.415555701474659, 567784.206176708103158 ], [ 427056.115329563443083, 567837.80078427225817 ], [ 427078.113151486439165, 567832.30225171870552 ], [ 427094.215686010255013, 567956.30668226047419 ], [ 427146.110150807653554, 567943.000403299578466 ], [ 427318.316634216113016, 567983.798340248176828 ], [ 427301.010301938455086, 568084.199447470833547 ], [ 427434.110497439280152, 568109.202064529759809 ], [ 427476.81156021199422, 567789.004008019692264 ], [ 427763.814173372171354, 567879.097896988852881 ], [ 428138.815928121854085, 568049.500089923734777 ], [ 428337.71142885053996, 567974.702058960217983 ] ] ] } },
{ "type": "Feature", "properties": { "FID": 3033, "WD23CD": "E05011453", "WD23NM": "Monument", "WD23NMW": " ", "BNG_E": 424559, "BNG_N": 564358, "LONG": -1.61788, "LAT": 54.97324, "GlobalID": "70673391-364c-45e5-b4a0-56bec579e691", "Electoral wards and divisions Code": "E05011453", "Electoral wards and divisions": "Monument", "total_population": 13620, "gp_count": 3.0, "gp_per_10k": 2.2, "flood_area_m2": 33394.5, "ward_area_m2": 2895197.1523753842, "pct_flood_risk": 1.15, "flood_area_per_1k_pop": 2451.8722466960353 }, "geometry": { "type": "Polygon", "coordinates": [ [ [ 424890.013896297779866, 565436.508774565532804 ], [ 425064.512431356997695, 565367.508856719941832 ], [ 425279.510821444331668, 565213.703380226157606 ], [ 425391.017340344609693, 565015.70065956551116 ], [ 425508.014792347559705, 565025.107980823027901 ], [ 425473.113693035789765, 564889.007327124127187 ], [ 425498.417830079386476, 564878.910162752261385 ], [ 425484.418045233236626, 564679.207885685493238 ], [ 425510.315920737048145, 564592.602921516518109 ], [ 425467.911655992327724, 564510.606427509803325 ], [ 425476.511558965721633, 564184.409463841700926 ], [ 425534.317780802841298, 564093.805414607399143 ], [ 425695.310538801248185, 564023.405212493613362 ], [ 425695.374238737043925, 564023.076812053914182 ], [ 425183.713144916924648, 563779.70487167336978 ], [ 424710.512174334260635, 563457.106491389800794 ], [ 424720.711165610700846, 563424.905749545199797 ], [ 424411.808425057097338, 563161.021141573903151 ], [ 424321.410625190066639, 563346.907437086571008 ], [ 424155.81702897750074, 563507.801034698495641 ], [ 424038.217414466198534, 563436.901061490993015 ], [ 423498.511510226177052, 563251.203401532489806 ], [ 423494.809401163191069, 563417.2055755907204 ], [ 423422.71454512065975, 563615.898320512962528 ], [ 423826.714881702209823, 563818.701335047604516 ], [ 423648.810730351542588, 564058.002611225587316 ], [ 423818.411724614619743, 564185.206846731482074 ], [ 423840.310622239660006, 564210.899639875278808 ], [ 423994.715973125130404, 564213.19938417035155 ], [ 424067.816810267861001, 564166.302937240572646 ], [ 424253.710261642932892, 564136.302032720763236 ], [ 424277.513565115456004, 564264.605554510606453 ], [ 424346.615190716867801, 564391.809504855773412 ], [ 424210.909450933220796, 564543.105997327016667 ], [ 424003.216234191204421, 564635.608808396966197 ], [ 424040.813713750336319, 564999.704121171496809 ], [ 424162.815859408408869, 565192.808654771419242 ], [ 424190.60996583319502, 565326.600117326597683 ], [ 424073.909292680385988, 565417.703761436278 ], [ 424087.909397119132336, 565461.001293817185797 ], [ 424133.51292587374337, 565435.598664055112749 ], [ 424173.913746133621316, 565578.207831892184913 ], [ 424517.015649401815608, 565439.007871619425714 ], [ 424890.013896297779866, 565436.508774565532804 ] ] ] } },
{ "type": "Feature", "properties": { "FID": 3034, "WD23CD": "E05011454", "WD23NM": "North Jesmond", "WD23NMW": " ", "BNG_E": 425376, "BNG_N": 566605, "LONG": -1.60492, "LAT": 54.99339, "GlobalID": "4302fea3-ff7a-43b7-a2a7-61e1959ce010", "Electoral wards and divisions Code": "E05011454", "Electoral wards and divisions": "North Jesmond", "total_population": 10578, "gp_count": 1.0, "gp_per_10k": 0.95, "flood_area_m2": 13176.46, "ward_area_m2": 1338125.8027836599, "pct_flood_risk": 0.98, "flood_area_per_1k_pop": 1245.6475704291925 }, "geometry": { "type": "Polygon", "coordinates": [ [ [ 426393.409396094619296, 566117.804059699759819 ], [ 426195.11587647307897, 566007.705427064676769 ], [ 426106.811339445936028, 565999.00790519779548 ], [ 426027.510393094096798, 566010.404692907817662 ], [ 425982.616021092049778, 566061.799894559662789 ], [ 425854.916616741218604, 566094.5005581084406 ], [ 425843.109727064380422, 566126.101454425370321 ], [ 425802.91505922266515, 566130.900138484896161 ], [ 425798.512260495626833, 566101.008638371480629 ], [ 425690.914245010586455, 566109.606198348803446 ], [ 425692.909548622556031, 566142.706692043575458 ], [ 425660.011775491351727, 566144.706077754148282 ], [ 425650.315574695181567, 566099.099186287377961 ], [ 425406.715356146392878, 566112.90514197491575 ], [ 425374.41127171710832, 566160.201628522248939 ], [ 425387.116880493238568, 566212.60661756072659 ], [ 425341.909190545848105, 566225.502913647214882 ], [ 425351.613696422427893, 566262.002406508312561 ], [ 425237.411320054205135, 566292.003903213539161 ], [ 425196.210824375040829, 566281.107005269615911 ], [ 425167.410801659512799, 566128.800617103348486 ], [ 424926.712748756341171, 566162.001099387649447 ], [ 424908.210863312764559, 566242.208106582169421 ], [ 424754.712584875524044, 566218.005000498844311 ], [ 424641.911707893188577, 566823.102198821608908 ], [ 424952.816204380302224, 567102.002571198157966 ], [ 425019.609337091911584, 567148.409294535871595 ], [ 425042.810941438016016, 567126.605572262546048 ], [ 425087.21046801522607, 567192.306714936043136 ], [ 425093.410781630256679, 567170.502996357972734 ], [ 425230.814711328363046, 567167.603764651110396 ], [ 425234.615680203947704, 567201.704090161249042 ], [ 425306.809332695906051, 567210.801481336704455 ], [ 425606.912942215334624, 567170.902793142944574 ], [ 425834.815007445809897, 567072.200967863434926 ], [ 426029.810804138076492, 566790.801523864152841 ], [ 426124.810255698801484, 566439.302097550360486 ], [ 426084.516701758548152, 566359.604835920035839 ], [ 426178.510252721374854, 566168.899406451149844 ], [ 426232.416518275451381, 566131.300208211643621 ], [ 426356.215912653540727, 566152.704073243774474 ], [ 426393.409396094619296, 566117.804059699759819 ] ] ] } },
{ "type": "Feature", "properties": { "FID": 3035, "WD23CD": "E05011455", "WD23NM": "Ouseburn", "WD23NMW": " ", "BNG_E": 425891, "BNG_N": 564792, "LONG": -1.59704, "LAT": 54.97707, "GlobalID": "1e7b7bff-f198-4cfe-84f6-ebb25cc968cb", "Electoral wards and divisions Code": "E05011455", "Electoral wards and divisions": "Ouseburn (Newcastle upon Tyne)", "total_population": 12644, "gp_count": 4.0, "gp_per_10k": 3.16, "flood_area_m2": 15084.48, "ward_area_m2": 1069908.3244057477, "pct_flood_risk": 1.41, "flood_area_per_1k_pop": 1193.0148687124326 }, "geometry": { "type": "Polygon", "coordinates": [ [ [ 426944.81437573506264, 565158.008051219745539 ], [ 426153.215049266582355, 564724.503374089486897 ], [ 426226.773320415813942, 564666.000740589573979 ], [ 426161.814641287026461, 564706.908471951493993 ], [ 426253.112669462687336, 564645.05238725815434 ], [ 426276.442522211815231, 564626.497637573280372 ], [ 426280.815425821812823, 564570.807167999097146 ], [ 426226.315624809358269, 564525.400295516941696 ], [ 426237.710214090067893, 564420.400277909240685 ], [ 426327.416203621542081, 564360.807059954851866 ], [ 426364.609383446746506, 564258.106165205594152 ], [ 426425.309356860234402, 564231.303659942816012 ], [ 426446.111388132325374, 564072.698868547333404 ], [ 426231.509713117324281, 564132.102567827096209 ], [ 426065.916491746436805, 564134.60237216099631 ], [ 425909.013537972816266, 564110.909629871603101 ], [ 425695.374238737043925, 564023.076812053914182 ], [ 425695.310538801248185, 564023.405212493613362 ], [ 425534.317780802841298, 564093.805414607399143 ], [ 425476.511558965721633, 564184.409463841700926 ], [ 425467.911655992327724, 564510.606427509803325 ], [ 425510.315920737048145, 564592.602921516518109 ], [ 425484.418045233236626, 564679.207885685493238 ], [ 425498.417830079386476, 564878.910162752261385 ], [ 425473.113693035789765, 564889.007327124127187 ], [ 425508.014792347559705, 565025.107980823027901 ], [ 425524.611906648613513, 565139.105087577016093 ], [ 425556.116301952570211, 565148.302377052605152 ], [ 425651.313851970247924, 565093.508152363938279 ], [ 425658.915694024297409, 565122.009970152168535 ], [ 425760.915486769401468, 564979.101027563214302 ], [ 426091.616044249618426, 565048.300504843005911 ], [ 426052.913759031391237, 565094.207306662807241 ], [ 426125.816544037428685, 565134.005740416236222 ], [ 426084.615943124867044, 565199.706914872629568 ], [ 426114.314618973061442, 565191.809185194666497 ], [ 426237.116348766314331, 565315.003604259574786 ], [ 426328.80967122700531, 565380.704664475400932 ], [ 426406.313124526583124, 565257.000056937918998 ], [ 426566.910317870613653, 565342.405460300855339 ], [ 426572.508700689068064, 565308.505156282451935 ], [ 426705.311839187517762, 565326.599842581315897 ], [ 426706.713618759356905, 565532.301002696272917 ], [ 426857.81255624681944, 565561.302624502684921 ], [ 426876.809131532325409, 565355.301555435173213 ], [ 426944.81437573506264, 565158.008051219745539 ] ] ] } },
{ "type": "Feature", "properties": { "FID": 3036, "WD23CD": "E05011456", "WD23NM": "Parklands", "WD23NMW": " ", "BNG_E": 424667, "BNG_N": 570186, "LONG": -1.6157, "LAT": 55.0256, "GlobalID": "79920086-5faf-45ca-b2a3-73a17e4ffbc3", "Electoral wards and divisions Code": "E05011456", "Electoral wards and divisions": "Parklands", "total_population": 11763, "gp_count": 1.0, "gp_per_10k": 0.85, "flood_area_m2": 1282172.49, "ward_area_m2": 8522377.0465091914, "pct_flood_risk": 15.04, "flood_area_per_1k_pop": 109000.46671767406 }, "geometry": { "type": "Polygon", "coordinates": [ [ [ 425817.616156805015635, 571745.802440016763285 ], [ 426047.908800845150836, 571722.998934971983545 ], [ 426062.609713708690833, 571676.802221710211597 ], [ 426132.81636718736263, 571677.901928235660307 ], [ 426169.713331845065113, 571202.008045578724705 ], [ 426260.21094553754665, 570779.49878053215798 ], [ 426480.213410052587278, 570240.502434216090478 ], [ 426452.312046173145063, 570176.60069155623205 ], [ 426195.313418036850635, 570088.506285306415521 ], [ 426065.008369797840714, 569975.99885720689781 ], [ 426045.113061405485496, 569992.30425612826366 ], [ 425886.816090947831981, 569642.905061219003983 ], [ 425735.815901842026506, 569297.004833680693991 ], [ 425613.615778058709111, 568717.499885208788328 ], [ 425622.512164161074907, 568549.107686132309027 ], [ 425663.811665653600357, 568436.599627147312276 ], [ 425486.913919463055208, 568458.403376165078953 ], [ 424791.50963581824908, 568602.402312420657836 ], [ 424351.009058412630111, 568652.30793534417171 ], [ 424345.814762200752739, 568704.802922760252841 ], [ 424260.70909035357181, 568671.502430816763081 ], [ 424083.811158201773651, 568709.101711011840962 ], [ 423419.613405519281514, 568917.401715532760136 ], [ 423421.41085265687434, 569094.700811769464053 ], [ 423203.708242230990436, 569152.004295951221138 ], [ 423023.908316602522973, 569290.904624152230099 ], [ 423083.610840211098548, 569307.799857994657941 ], [ 423098.716190701699816, 569522.498744886834174 ], [ 423037.109718108433299, 569868.000492666033097 ], [ 422775.609738021681551, 569939.200454936479218 ], [ 422643.416870139946695, 569931.502704424434341 ], [ 423007.213480704347603, 570311.603766864282079 ], [ 423604.311598144762684, 570809.200299846823327 ], [ 423756.111236648052, 571006.503546101273969 ], [ 423830.514802338904701, 571196.79920887388289 ], [ 423853.815659726213198, 571398.001729395939037 ], [ 423762.214011668344028, 571945.805605740402825 ], [ 423986.412977829575539, 571942.505722079891711 ], [ 423995.515424090088345, 571808.70397852093447 ], [ 424138.113305484410375, 571777.002672382979654 ], [ 424148.609297651564702, 571822.599519713432528 ], [ 424228.008966135676019, 571803.604796962928958 ], [ 424196.611815521318931, 571678.200875276466832 ], [ 424231.010130505776033, 571669.003399020992219 ], [ 424417.611821460246574, 571838.8040884436341 ], [ 424600.709804656857159, 571931.197518626460806 ], [ 425000.109433625766542, 571842.103937362786382 ], [ 425817.616156805015635, 571745.802440016763285 ] ] ] } },
{ "type": "Feature", "properties": { "FID": 3037, "WD23CD": "E05011457", "WD23NM": "South Jesmond", "WD23NMW": " ", "BNG_E": 425634, "BNG_N": 565636, "LONG": -1.60098, "LAT": 54.98467, "GlobalID": "51be3638-aefe-44d5-a96a-1066d9eff9ce", "Electoral wards and divisions Code": "E05011457", "Electoral wards and divisions": "South Jesmond", "total_population": 9786, "gp_count": 2.0, "gp_per_10k": 2.04, "flood_area_m2": 23080.21, "ward_area_m2": 1498968.29473797, "pct_flood_risk": 1.54, "flood_area_per_1k_pop": 2358.4927447373798 }, "geometry": { "type": "Polygon", "coordinates": [ [ [ 426393.409396094619296, 566117.804059699759819 ], [ 426394.811094730684999, 566118.503860807511955 ], [ 426456.113085417833645, 566029.699200885137543 ], [ 426448.816232823126484, 565930.907408603234217 ], [ 426513.309106096741743, 565901.105884042102844 ], [ 426525.709762751997914, 565768.803648388013244 ], [ 426403.715882005402818, 565622.305543711874634 ], [ 426438.914108779456001, 565524.403442953480408 ], [ 426358.813337449275423, 565516.005878134281375 ], [ 426318.115774733247235, 565395.100563458981924 ], [ 426237.116348766314331, 565315.003604259574786 ], [ 426114.314618973061442, 565191.809185194666497 ], [ 426084.615943124867044, 565199.706914872629568 ], [ 426125.816544037428685, 565134.005740416236222 ], [ 426052.913759031391237, 565094.207306662807241 ], [ 426091.616044249618426, 565048.300504843005911 ], [ 425760.915486769401468, 564979.101027563214302 ], [ 425658.915694024297409, 565122.009970152168535 ], [ 425651.313851970247924, 565093.508152363938279 ], [ 425556.116301952570211, 565148.302377052605152 ], [ 425524.611906648613513, 565139.105087577016093 ], [ 425508.014792347559705, 565025.107980823027901 ], [ 425391.017340344609693, 565015.70065956551116 ], [ 425279.510821444331668, 565213.703380226157606 ], [ 425064.512431356997695, 565367.508856719941832 ], [ 424890.013896297779866, 565436.508774565532804 ], [ 424754.712584875524044, 566218.005000498844311 ], [ 424908.210863312764559, 566242.208106582169421 ], [ 424926.712748756341171, 566162.001099387649447 ], [ 425167.410801659512799, 566128.800617103348486 ], [ 425196.210824375040829, 566281.107005269615911 ], [ 425237.411320054205135, 566292.003903213539161 ], [ 425351.613696422427893, 566262.002406508312561 ], [ 425341.909190545848105, 566225.502913647214882 ], [ 425387.116880493238568, 566212.60661756072659 ], [ 425374.41127171710832, 566160.201628522248939 ], [ 425406.715356146392878, 566112.90514197491575 ], [ 425650.315574695181567, 566099.099186287377961 ], [ 425660.011775491351727, 566144.706077754148282 ], [ 425692.909548622556031, 566142.706692043575458 ], [ 425690.914245010586455, 566109.606198348803446 ], [ 425798.512260495626833, 566101.008638371480629 ], [ 425802.91505922266515, 566130.900138484896161 ], [ 425843.109727064380422, 566126.101454425370321 ], [ 425854.916616741218604, 566094.5005581084406 ], [ 425982.616021092049778, 566061.799894559662789 ], [ 426027.510393094096798, 566010.404692907817662 ], [ 426106.811339445936028, 565999.00790519779548 ], [ 426195.11587647307897, 566007.705427064676769 ], [ 426393.409396094619296, 566117.804059699759819 ] ] ] } },
{ "type": "Feature", "properties": { "FID": 3038, "WD23CD": "E05011458", "WD23NM": "Walker", "WD23NMW": " ", "BNG_E": 428852, "BNG_N": 563892, "LONG": -1.55087, "LAT": 54.96882, "GlobalID": "e9d06ce7-b115-40fe-8a93-c0fe192bea86", "Electoral wards and divisions Code": "E05011458", "Electoral wards and divisions": "Walker", "total_population": 11825, "gp_count": 1.0, "gp_per_10k": 0.85, "flood_area_m2": 46110.21, "ward_area_m2": 2805894.3839301588, "pct_flood_risk": 1.64, "flood_area_per_1k_pop": 3899.383509513742 }, "geometry": { "type": "Polygon", "coordinates": [ [ [ 429859.470369822578505, 564864.147294253576547 ], [ 429747.211935675353743, 563515.60845304839313 ], [ 429710.414138777065091, 563411.308282976038754 ], [ 429689.809744945028797, 563426.00409912772011 ], [ 429504.114272761507891, 563248.005186140188016 ], [ 429334.109289236599579, 563150.003222001367249 ], [ 429291.416398312780075, 563175.106154005741701 ], [ 429189.012666723574512, 563134.107867369893938 ], [ 428810.011882177728694, 562915.900234751752578 ], [ 428656.010647084563971, 562909.002233986509964 ], [ 428219.014390194555745, 563253.10403275792487 ], [ 427928.489207865379285, 563408.625016988022253 ], [ 427950.612853768630885, 563587.908021946670488 ], [ 427910.508849978737999, 563602.903680437244475 ], [ 427928.013263620494399, 563817.502221826580353 ], [ 427888.816414675966371, 564019.804263804806396 ], [ 427932.012253949069418, 564053.004762965021655 ], [ 427887.513910820591263, 564402.604596289456822 ], [ 427830.614772824454121, 564395.806531203212216 ], [ 427825.313193693640642, 564428.607132601784542 ], [ 428308.713237254763953, 564478.302564406185411 ], [ 429570.610719071817584, 564855.503913733176887 ], [ 429763.91596416325774, 564874.998402948956937 ], [ 429859.470369822578505, 564864.147294253576547 ] ] ] } },
{ "type": "Feature", "properties": { "FID": 3039, "WD23CD": "E05011459", "WD23NM": "Walkergate", "WD23NMW": " ", "BNG_E": 428531, "BNG_N": 565550, "LONG": -1.55572, "LAT": 54.98374, "GlobalID": "1f1b33ce-3eca-4377-ae3d-c5ea96458d6a", "Electoral wards and divisions Code": "E05011459", "Electoral wards and divisions": "Walkergate", "total_population": 12407, "gp_count": 3.0, "gp_per_10k": 2.42, "flood_area_m2": 82565.24, "ward_area_m2": 3366641.7307556281, "pct_flood_risk": 2.45, "flood_area_per_1k_pop": 6654.7303941323453 }, "geometry": { "type": "Polygon", "coordinates": [ [ [ 429024.111685939773452, 566541.002061828505248 ], [ 429084.712970981374383, 566483.998393372283317 ], [ 429163.313023227558006, 566141.706260421313345 ], [ 429504.312579127145, 566240.308318536728621 ], [ 429638.013892136106733, 565923.998592233867384 ], [ 429597.209024802199565, 565889.398446100298315 ], [ 429610.409072322887369, 565770.50233889138326 ], [ 429550.11274932307424, 565638.200107062817551 ], [ 429538.313855180807877, 565509.107000345597044 ], [ 429672.213554111076519, 565469.798200869117863 ], [ 429938.809776345908176, 565782.299090713146143 ], [ 430119.696968227974139, 565615.689947499893606 ], [ 430122.814405587036163, 565590.503716223523952 ], [ 430015.809891977580264, 565460.700755359255709 ], [ 430030.411934494390152, 565434.698244189843535 ], [ 429865.008371296862606, 564987.806117224041373 ], [ 429859.516268913284875, 564864.698494347278029 ], [ 429859.470369822578505, 564864.147294253576547 ], [ 429763.91596416325774, 564874.998402948956937 ], [ 429570.610719071817584, 564855.503913733176887 ], [ 428308.713237254763953, 564478.302564406185411 ], [ 428100.310344459605403, 565225.498259516549297 ], [ 427482.813038209395017, 564961.404272166430019 ], [ 427363.210116032860242, 564881.407229619915597 ], [ 427374.011097468028311, 564955.206078251241706 ], [ 427288.509676669084001, 565357.400736764306203 ], [ 427483.010579096735455, 565510.506708657718264 ], [ 427747.709945405251347, 565822.307496272958815 ], [ 428086.812733199971262, 566492.705948025570251 ], [ 428171.811095802870113, 566403.601413249736652 ], [ 428338.311895566759631, 566556.207647218834609 ], [ 428483.515731768449768, 566620.999107152689248 ], [ 428746.409505808842368, 566214.405308187706396 ], [ 428879.113883532874752, 566308.39848207635805 ], [ 428895.612197338661645, 566284.505282674799673 ], [ 428934.710337618016638, 566301.30051422608085 ], [ 429024.111685939773452, 566541.002061828505248 ] ] ] } },
{ "type": "Feature", "properties": { "FID": 3040, "WD23CD": "E05011460", "WD23NM": "West Fenham", "WD23NMW": " ", "BNG_E": 420709, "BNG_N": 565731, "LONG": -1.67793, "LAT": 54.98575, "GlobalID": "d98efafb-c308-4342-ba3f-c7142a5f3176", "Electoral wards and divisions Code": "E05011460", "Electoral wards and divisions": "West Fenham", "total_population": 10876, "gp_count": 2.0, "gp_per_10k": 1.84, "flood_area_m2": 0.0, "ward_area_m2": 2296311.8439206178, "pct_flood_risk": 0.0, "flood_area_per_1k_pop": 0.0 }, "geometry": { "type": "Polygon", "coordinates": [ [ [ 421964.311828425445128, 566178.805865799891762 ], [ 421767.71662404993549, 565922.49912897311151 ], [ 421623.609384303505067, 565667.202289973385632 ], [ 421738.916612664470449, 565614.007602133089676 ], [ 421687.310693605802953, 565525.902828162885271 ], [ 421867.316756048472598, 565306.805729177314788 ], [ 421831.516694466234185, 565266.007303158985451 ], [ 421716.514454105345067, 565269.706245310953818 ], [ 421678.216098272707313, 565235.805920708109625 ], [ 421687.11234243697254, 565020.807392364018597 ], [ 421747.416612241300754, 564973.201111918315291 ], [ 422013.913666840875521, 565003.202636961941607 ], [ 422039.011306488595437, 564675.006473223911598 ], [ 421946.311985739332158, 564698.499742993852124 ], [ 421550.408828571788035, 564815.706005095737055 ], [ 419703.712414290755987, 565637.601424528751522 ], [ 420520.212481835333165, 566787.501914959633723 ], [ 420655.415298386709765, 566679.802548146224581 ], [ 420916.512180111603811, 566302.200314215384424 ], [ 421004.709809205378406, 566228.101430094917305 ], [ 421659.912422246532515, 566128.100097551010549 ], [ 421964.311828425445128, 566178.805865799891762 ] ] ] } },
{ "type": "Feature", "properties": { "FID": 3041, "WD23CD": "E05011461", "WD23NM": "Wingrove", "WD23NMW": " ", "BNG_E": 423255, "BNG_N": 565650, "LONG": -1.63815, "LAT": 54.98491, "GlobalID": "e0f512a0-992f-4225-881f-5e4670dec237", "Electoral wards and divisions Code": "E05011461", "Electoral wards and divisions": "Wingrove", "total_population": 11670, "gp_count": 0.0, "gp_per_10k": 0.0, "flood_area_m2": 0.0, "ward_area_m2": 4001879.4278230923, "pct_flood_risk": 0.0, "flood_area_per_1k_pop": 0.0 }, "geometry": { "type": "Polygon", "coordinates": [ [ [ 424641.911707893188577, 566823.102198821608908 ], [ 424754.712584875524044, 566218.005000498844311 ], [ 424890.013896297779866, 565436.508774565532804 ], [ 424517.015649401815608, 565439.007871619425714 ], [ 424173.913746133621316, 565578.207831892184913 ], [ 424133.51292587374337, 565435.598664055112749 ], [ 424087.909397119132336, 565461.001293817185797 ], [ 423986.016933492850512, 565501.999514106428251 ], [ 423944.709115704172291, 565435.598558592959307 ], [ 423870.214964116341434, 565501.799467650125735 ], [ 423787.014054754225072, 565234.306263704551384 ], [ 423663.214386523410212, 565243.303523866459727 ], [ 423531.713846230355557, 565099.704524151748046 ], [ 423188.109257141128182, 565489.903016208903864 ], [ 423063.312144773895852, 565396.199909229879268 ], [ 422883.413162878248841, 565141.103019780362956 ], [ 422972.814308200730011, 565101.004455389804207 ], [ 422895.615640246018302, 564438.504009725176729 ], [ 422039.011306488595437, 564675.006473223911598 ], [ 422013.913666840875521, 565003.202636961941607 ], [ 421747.416612241300754, 564973.201111918315291 ], [ 421687.11234243697254, 565020.807392364018597 ], [ 421678.216098272707313, 565235.805920708109625 ], [ 421716.514454105345067, 565269.706245310953818 ], [ 421831.516694466234185, 565266.007303158985451 ], [ 421867.316756048472598, 565306.805729177314788 ], [ 421687.310693605802953, 565525.902828162885271 ], [ 421738.916612664470449, 565614.007602133089676 ], [ 421623.609384303505067, 565667.202289973385632 ], [ 421767.71662404993549, 565922.49912897311151 ], [ 421964.311828425445128, 566178.805865799891762 ], [ 422060.812026297149714, 566202.699051339295693 ], [ 422212.216138334362768, 566144.50592391542159 ], [ 422788.314718256762717, 566195.101575494511053 ], [ 423009.513053386064712, 566158.202151834848337 ], [ 423225.615900868666358, 566073.906178348115645 ], [ 423753.514209525194019, 566715.802673751604743 ], [ 423857.509273316012695, 566787.102312193717808 ], [ 424455.012594988453202, 566862.501031297491863 ], [ 424641.911707893188577, 566823.102198821608908 ] ] ] } }
]
}
